{
  "norad_id": 66577,
  "name": "STARLINK-35815",
  "history": [
    {
      "epoch": "2026-03-28T10:00:15.971328Z",
      "apogee_km": 484.00476280565726,
      "perigee_km": 481.99321495643835,
      "latitude_deg": 2.290197739537306e-05,
      "longitude_deg": -94.59022612275484,
      "height_km": 482.76315383919615,
      "semi_major_axis_km": 6861.1359888810475,
      "eccentricity": 0.00014659,
      "inclination_deg": 43.0021,
      "raan_deg": 241.3139,
      "arg_perigee_deg": 270.7305,
      "mean_anomaly_deg": 89.3379,
      "mean_motion_rev_day": 15.27596734
    }
  ]
}